{
  "type": "FeatureCollection",
  "features": [
    {
      "type": "Feature",
      "properties": {
        "norad_id": 29975,
        "name": "FENGYUN 1C DEB",
        "group": "fengyun-1c-debris",
        "lat": -49.11681479907311,
        "lon": 31.60771104308074,
        "alt_km": 896.1484992697124,
        "timestamp": "2025-12-05T16:54:14.921489+00:00",
        "meta_object_name": "FENGYUN 1C DEB",
        "meta_object_id": "1999-025KZ",
        "meta_epoch": "2025-12-05T01:55:56.076096",
        "meta_mean_motion": 13.98023269,
        "meta_eccentricity": 0.01140958,
        "meta_inclination": 99.3409,
        "meta_ra_of_asc_node": 20.0131,
        "meta_arg_of_pericenter": 34.5974,
        "meta_mean_anomaly": 18.803,
        "meta_ephemeris_type": 0,
        "meta_classification_type": "U",
        "meta_norad_cat_id": 29975,
        "meta_element_set_no": 999,
        "meta_rev_at_epoch": 96330,
        "meta_bstar": 0.000185299,
        "meta_mean_motion_dot": 2.32e-06,
        "meta_mean_motion_ddot": 0,
        "tle_line1": "1 29975U 99025KZ  25339.08051014  .00000232  00000+0  18530-3 0  9994",
        "tle_line2": "2 29975  99.3409  20.0131 0114095  34.5974  18.8030 13.98023269963301"
      },
      "geometry": {
        "type": "Point",
        "coordinates": [
          31.60771104308074,
          -49.11681479907311
        ]
      }
    },
    {
      "type": "Feature",
      "properties": {
        "norad_id": 29976,
        "name": "FENGYUN 1C DEB",
        "group": "fengyun-1c-debris",
        "lat": 54.91292103579584,
        "lon": 170.11786607898787,
        "alt_km": 1030.329993072286,
        "timestamp": "2025-12-05T16:54:14.921498+00:00",
        "meta_object_name": "FENGYUN 1C DEB",
        "meta_object_id": "1999-025LA",
        "meta_epoch": "2025-12-05T06:18:43.282944",
        "meta_mean_motion": 13.98098179,
        "meta_eccentricity": 0.02675233,
        "meta_inclination": 98.9177,
        "meta_ra_of_asc_node": 336.7732,
        "meta_arg_of_pericenter": 260.298,
        "meta_mean_anomaly": 165.8098,
        "meta_ephemeris_type": 0,
        "meta_classification_type": "U",
        "meta_norad_cat_id": 29976,
        "meta_element_set_no": 999,
        "meta_rev_at_epoch": 96232,
        "meta_bstar": 0.00037000867,
        "meta_mean_motion_dot": 6.68e-06,
        "meta_mean_motion_ddot": 0,
        "tle_line1": "1 29976U 99025LA  25339.26300096  .00000668  00000+0  37001-3 0  9999",
        "tle_line2": "2 29976  98.9177 336.7732 0267523 260.2980 165.8098 13.98098179962323"
      },
      "geometry": {
        "type": "Point",
        "coordinates": [
          170.11786607898787,
          54.91292103579584
        ]
      }
    },
    {
      "type": "Feature",
      "properties": {
        "norad_id": 29977,
        "name": "FENGYUN 1C DEB",
        "group": "fengyun-1c-debris",
        "lat": -60.0621211391216,
        "lon": 7.407793848308314,
        "alt_km": 807.4559336452548,
        "timestamp": "2025-12-05T16:54:14.921507+00:00",
        "meta_object_name": "FENGYUN 1C DEB",
        "meta_object_id": "1999-025LB",
        "meta_epoch": "2025-12-04T14:22:59.594304",
        "meta_mean_motion": 14.05030377,
        "meta_eccentricity": 0.01288,
        "meta_inclination": 98.3967,
        "meta_ra_of_asc_node": 201.245,
        "meta_arg_of_pericenter": 280.1888,
        "meta_mean_anomaly": 135.4786,
        "meta_ephemeris_type": 0,
        "meta_classification_type": "U",
        "meta_norad_cat_id": 29977,
        "meta_element_set_no": 999,
        "meta_rev_at_epoch": 96246,
        "meta_bstar": 0.0025351,
        "meta_mean_motion_dot": 4.359e-05,
        "meta_mean_motion_ddot": 0,
        "tle_line1": "1 29977U 99025LB  25338.59930086  .00004359  00000+0  25351-2 0  9998",
        "tle_line2": "2 29977  98.3967 201.2450 0128800 280.1888 135.4786 14.05030377962467"
      },
      "geometry": {
        "type": "Point",
        "coordinates": [
          7.407793848308314,
          -60.0621211391216
        ]
      }
    },
    {
      "type": "Feature",
      "properties": {
        "norad_id": 29978,
        "name": "FENGYUN 1C DEB",
        "group": "fengyun-1c-debris",
        "lat": -17.4104996590032,
        "lon": -152.60233027953512,
        "alt_km": 945.6990123306086,
        "timestamp": "2025-12-05T16:54:14.921516+00:00",
        "meta_object_name": "FENGYUN 1C DEB",
        "meta_object_id": "1999-025LC",
        "meta_epoch": "2025-12-05T02:27:46.730016",
        "meta_mean_motion": 13.95905345,
        "meta_eccentricity": 0.00769107,
        "meta_inclination": 99.0627,
        "meta_ra_of_asc_node": 29.6746,
        "meta_arg_of_pericenter": 72.9314,
        "meta_mean_anomaly": 341.7523,
        "meta_ephemeris_type": 0,
        "meta_classification_type": "U",
        "meta_norad_cat_id": 29978,
        "meta_element_set_no": 999,
        "meta_rev_at_epoch": 96210,
        "meta_bstar": 0.00022579743,
        "meta_mean_motion_dot": 2.73e-06,
        "meta_mean_motion_ddot": 0,
        "tle_line1": "1 29978U 99025LC  25339.10262419  .00000273  00000+0  22580-3 0  9998",
        "tle_line2": "2 29978  99.0627  29.6746 0076910  72.9314 341.7523 13.95905345962100"
      },
      "geometry": {
        "type": "Point",
        "coordinates": [
          -152.60233027953512,
          -17.4104996590032
        ]
      }
    },
    {
      "type": "Feature",
      "properties": {
        "norad_id": 29979,
        "name": "FENGYUN 1C DEB",
        "group": "fengyun-1c-debris",
        "lat": 7.340763581023002,
        "lon": -175.68651821924863,
        "alt_km": 731.671410684512,
        "timestamp": "2025-12-05T16:54:14.921526+00:00",
        "meta_object_name": "FENGYUN 1C DEB",
        "meta_object_id": "1999-025LD",
        "meta_epoch": "2025-12-05T01:11:53.392128",
        "meta_mean_motion": 14.25938347,
        "meta_eccentricity": 0.01071714,
        "meta_inclination": 98.3709,
        "meta_ra_of_asc_node": 2.6013,
        "meta_arg_of_pericenter": 185.4947,
        "meta_mean_anomaly": 229.7588,
        "meta_ephemeris_type": 0,
        "meta_classification_type": "U",
        "meta_norad_cat_id": 29979,
        "meta_element_set_no": 999,
        "meta_rev_at_epoch": 97964,
        "meta_bstar": 0.0008207752,
        "meta_mean_motion_dot": 2.037e-05,
        "meta_mean_motion_ddot": 0,
        "tle_line1": "1 29979U 99025LD  25339.04992352  .00002037  00000+0  82078-3 0  9996",
        "tle_line2": "2 29979  98.3709   2.6013 0107171 185.4947 229.7588 14.25938347979643"
      },
      "geometry": {
        "type": "Point",
        "coordinates": [
          -175.68651821924863,
          7.340763581023002
        ]
      }
    },
    {
      "type": "Feature",
      "properties": {
        "norad_id": 29980,
        "name": "FENGYUN 1C DEB",
        "group": "fengyun-1c-debris",
        "lat": -57.36383708102953,
        "lon": -44.34440537493666,
        "alt_km": 824.299104040495,
        "timestamp": "2025-12-05T16:54:14.921535+00:00",
        "meta_object_name": "FENGYUN 1C DEB",
        "meta_object_id": "1999-025LE",
        "meta_epoch": "2025-12-05T06:22:35.489856",
        "meta_mean_motion": 14.06307839,
        "meta_eccentricity": 0.00867289,
        "meta_inclination": 98.5515,
        "meta_ra_of_asc_node": 148.8297,
        "meta_arg_of_pericenter": 269.213,
        "meta_mean_anomaly": 270.074,
        "meta_ephemeris_type": 0,
        "meta_classification_type": "U",
        "meta_norad_cat_id": 29980,
        "meta_element_set_no": 999,
        "meta_rev_at_epoch": 96887,
        "meta_bstar": 0.00023698452,
        "meta_mean_motion_dot": 3.63e-06,
        "meta_mean_motion_ddot": 0,
        "tle_line1": "1 29980U 99025LE  25339.26568854  .00000363  00000+0  23698-3 0  9991",
        "tle_line2": "2 29980  98.5515 148.8297 0086728 269.2130 270.0740 14.06307839968875"
      },
      "geometry": {
        "type": "Point",
        "coordinates": [
          -44.34440537493666,
          -57.36383708102953
        ]
      }
    },
    {
      "type": "Feature",
      "properties": {
        "norad_id": 29982,
        "name": "FENGYUN 1C DEB",
        "group": "fengyun-1c-debris",
        "lat": -11.408496156724032,
        "lon": -21.967485319480357,
        "alt_km": 715.7188099543055,
        "timestamp": "2025-12-05T16:54:14.921544+00:00",
        "meta_object_name": "FENGYUN 1C DEB",
        "meta_object_id": "1999-025LG",
        "meta_epoch": "2025-12-05T07:00:56.562912",
        "meta_mean_motion": 14.66788092,
        "meta_eccentricity": 0.01222178,
        "meta_inclination": 99.4013,
        "meta_ra_of_asc_node": 159.4766,
        "meta_arg_of_pericenter": 311.04,
        "meta_mean_anomaly": 227.258,
        "meta_ephemeris_type": 0,
        "meta_classification_type": "U",
        "meta_norad_cat_id": 29982,
        "meta_element_set_no": 999,
        "meta_rev_at_epoch": 174,
        "meta_bstar": 0.0011825331,
        "meta_mean_motion_dot": 7.311e-05,
        "meta_mean_motion_ddot": 0,
        "tle_line1": "1 29982U 99025LG  25339.29232133  .00007311  00000+0  11825-2 0  9992",
        "tle_line2": "2 29982  99.4013 159.4766 0122217 311.0400 227.2580 14.66788092  1749"
      },
      "geometry": {
        "type": "Point",
        "coordinates": [
          -21.967485319480357,
          -11.408496156724032
        ]
      }
    }
  ]
}